{"type": "FeatureCollection", "features": [ {"type": "Feature", "properties": {"norad_id": 66927, "name": "STARLINK-35943", "group": "last-30-days", "lat": 5.1988003917483825, "lon": -163.22081252338268, "alt_km": 323.7891645493073, "timestamp": "2025-12-18T15:47:09.961739+00:00", "meta": {"OBJECT_NAME": "STARLINK-35943", "OBJECT_ID": "2025-286C", "EPOCH": "2025-12-18T06:00:02.999808", "MEAN_MOTION": 15.83631694, "ECCENTRICITY": 7.758e-05, "INCLINATION": 53.1566, "RA_OF_ASC_NODE": 22.7418, "ARG_OF_PERICENTER": 82.5989, "MEAN_ANOMALY": 285.8773, "EPHEMERIS_TYPE": 0, "CLASSIFICATION_TYPE": "U", "NORAD_CAT_ID": 66927, "ELEMENT_SET_NO": 999, "REV_AT_EPOCH": 287, "BSTAR": -0.0067595025, "MEAN_MOTION_DOT": -0.01332852, "MEAN_MOTION_DDOT": 0}, "tle": {"line1": "1 66927U 25286C   25352.25003472 -.01332852  00000+0 -67595-2 0  9992", "line2": "2 66927  53.1566  22.7418 0000775  82.5989 285.8773 15.83631694  2875"}}, "geometry": {"type": "Point", "coordinates": [-163.22081252338268, 5.1988003917483825]}}, {"type": "Feature", "properties": {"norad_id": 66928, "name": "STARLINK-35944", "group": "last-30-days", "lat": 8.574296419278335, "lon": -165.79188215937754, "alt_km": 323.24330141815153, "timestamp": "2025-12-18T15:47:09.961751+00:00", "meta": {"OBJECT_NAME": "STARLINK-35944", "OBJECT_ID": "2025-286D", "EPOCH": "2025-12-18T06:00:02.999808", "MEAN_MOTION": 15.83611617, "ECCENTRICITY": 6.555e-05, "INCLINATION": 53.1565, "RA_OF_ASC_NODE": 22.7503, "ARG_OF_PERICENTER": 85.6812, "MEAN_ANOMALY": 278.5808, "EPHEMERIS_TYPE": 0, "CLASSIFICATION_TYPE": "U", "NORAD_CAT_ID": 66928, "ELEMENT_SET_NO": 999, "REV_AT_EPOCH": 287, "BSTAR": -0.0066874006, "MEAN_MOTION_DOT": -0.01319196, "MEAN_MOTION_DDOT": 0}, "tle": {"line1": "1 66928U 25286D   25352.25003472 -.01319196  00000+0 -66874-2 0  9998", "line2": "2 66928  53.1565  22.7503 0000655  85.6812 278.5808 15.83611617  2877"}}, "geometry": {"type": "Point", "coordinates": [-165.79188215937754, 8.574296419278335]}}, {"type": "Feature", "properties": {"norad_id": 66929, "name": "STARLINK-36169", "group": "last-30-days", "lat": 3.4097400514366796, "lon": -161.87443657824394, "alt_km": 324.13415497693404, "timestamp": "2025-12-18T15:47:09.961761+00:00", "meta": {"OBJECT_NAME": "STARLINK-36169", "OBJECT_ID": "2025-286E", "EPOCH": "2025-12-18T06:00:02.999808", "MEAN_MOTION": 15.836304, "ECCENTRICITY": 7.627e-05, "INCLINATION": 53.1565, "RA_OF_ASC_NODE": 22.7368, "ARG_OF_PERICENTER": 77.2817, "MEAN_ANOMALY": 293.4356, "EPHEMERIS_TYPE": 0, "CLASSIFICATION_TYPE": "U", "NORAD_CAT_ID": 66929, "ELEMENT_SET_NO": 999, "REV_AT_EPOCH": 287, "BSTAR": -0.0067588109, "MEAN_MOTION_DOT": -0.01332652, "MEAN_MOTION_DDOT": 0}, "tle": {"line1": "1 66929U 25286E   25352.25003472 -.01332652  00000+0 -67588-2 0  9994", "line2": "2 66929  53.1565  22.7368 0000762  77.2817 293.4356 15.83630400  2873"}}, "geometry": {"type": "Point", "coordinates": [-161.87443657824394, 3.4097400514366796]}}, {"type": "Feature", "properties": {"norad_id": 66930, "name": "STARLINK-36206", "group": "last-30-days", "lat": 1.7609702181851312, "lon": -160.63913539502025, "alt_km": 324.25076928742874, "timestamp": "2025-12-18T15:47:09.961773+00:00", "meta": {"OBJECT_NAME": "STARLINK-36206", "OBJECT_ID": "2025-286F", "EPOCH": "2025-12-18T06:00:02.999808", "MEAN_MOTION": 15.83645193, "ECCENTRICITY": 8.033e-05, "INCLINATION": 53.1564, "RA_OF_ASC_NODE": 22.7325, "ARG_OF_PERICENTER": 86.5561, "MEAN_ANOMALY": 286.2067, "EPHEMERIS_TYPE": 0, "CLASSIFICATION_TYPE": "U", "NORAD_CAT_ID": 66930, "ELEMENT_SET_NO": 999, "REV_AT_EPOCH": 287, "BSTAR": -0.0068038031, "MEAN_MOTION_DOT": -0.01341271, "MEAN_MOTION_DDOT": 0}, "tle": {"line1": "1 66930U 25286F   25352.25003472 -.01341271  00000+0 -68038-2 0  9994", "line2": "2 66930  53.1564  22.7325 0000803  86.5561 286.2067 15.83645193  2876"}}, "geometry": {"type": "Point", "coordinates": [-160.63913539502025, 1.7609702181851312]}}, {"type": "Feature", "properties": {"norad_id": 66931, "name": "STARLINK-36130", "group": "last-30-days", "lat": -0.0664766801571564, "lon": -159.27301920159266, "alt_km": 324.62715079693953, "timestamp": "2025-12-18T15:47:09.961783+00:00", "meta": {"OBJECT_NAME": "STARLINK-36130", "OBJECT_ID": "2025-286G", "EPOCH": "2025-12-18T06:00:02.999808", "MEAN_MOTION": 15.83646638, "ECCENTRICITY": 7.151e-05, "INCLINATION": 53.1563, "RA_OF_ASC_NODE": 22.7278, "ARG_OF_PERICENTER": 78.5279, "MEAN_ANOMALY": 296.5225, "EPHEMERIS_TYPE": 0, "CLASSIFICATION_TYPE": "U", "NORAD_CAT_ID": 66931, "ELEMENT_SET_NO": 999, "REV_AT_EPOCH": 287, "BSTAR": -0.0068382583, "MEAN_MOTION_DOT": -0.01347233, "MEAN_MOTION_DDOT": 0}, "tle": {"line1": "1 66931U 25286G   25352.25003472 -.01347233  00000+0 -68383-2 0  9992", "line2": "2 66931  53.1563  22.7278 0000715  78.5279 296.5225 15.83646638  2877"}}, "geometry": {"type": "Point", "coordinates": [-159.27301920159266, -0.0664766801571564]}}, {"type": "Feature", "properties": {"norad_id": 66932, "name": "STARLINK-36177", "group": "last-30-days", "lat": -1.8607292348491624, "lon": -157.9316887347144, "alt_km": 324.92368213130794, "timestamp": "2025-12-18T15:47:09.961793+00:00", "meta": {"OBJECT_NAME": "STARLINK-36177", "OBJECT_ID": "2025-286H", "EPOCH": "2025-12-18T06:00:02.999808", "MEAN_MOTION": 15.83650204, "ECCENTRICITY": 7.758e-05, "INCLINATION": 53.156, "RA_OF_ASC_NODE": 22.7231, "ARG_OF_PERICENTER": 77.2232, "MEAN_ANOMALY": 300.0708, "EPHEMERIS_TYPE": 0, "CLASSIFICATION_TYPE": "U", "NORAD_CAT_ID": 66932, "ELEMENT_SET_NO": 999, "REV_AT_EPOCH": 287, "BSTAR": -0.0068894337, "MEAN_MOTION_DOT": -0.01356277, "MEAN_MOTION_DDOT": 0}, "tle": {"line1": "1 66932U 25286H   25352.25003472 -.01356277  00000+0 -68894-2 0  9998", "line2": "2 66932  53.1560  22.7231 0000775  77.2232 300.0708 15.83650204  2876"}}, "geometry": {"type": "Point", "coordinates": [-157.9316887347144, -1.8607292348491624]}}, {"type": "Feature", "properties": {"norad_id": 66933, "name": "STARLINK-36157", "group": "last-30-days", "lat": -3.629251342877951, "lon": -156.60614724956994, "alt_km": 325.0639882341784, "timestamp": "2025-12-18T15:47:09.961802+00:00", "meta": {"OBJECT_NAME": "STARLINK-36157", "OBJECT_ID": "2025-286J", "EPOCH": "2025-12-18T06:00:02.999808", "MEAN_MOTION": 15.83656486, "ECCENTRICITY": 7.044e-05, "INCLINATION": 53.1563, "RA_OF_ASC_NODE": 22.7185, "ARG_OF_PERICENTER": 85.9689, "MEAN_ANOMALY": 293.5342, "EPHEMERIS_TYPE": 0, "CLASSIFICATION_TYPE": "U", "NORAD_CAT_ID": 66933, "ELEMENT_SET_NO": 999, "REV_AT_EPOCH": 287, "BSTAR": -0.0069336645, "MEAN_MOTION_DOT": -0.01364182, "MEAN_MOTION_DDOT": 0}, "tle": {"line1": "1 66933U 25286J   25352.25003472 -.01364182  00000+0 -69337-2 0  9996", "line2": "2 66933  53.1563  22.7185 0000704  85.9689 293.5342 15.83656486  2870"}}, "geometry": {"type": "Point", "coordinates": [-156.60614724956994, -3.629251342877951]}}, {"type": "Feature", "properties": {"norad_id": 66934, "name": "STARLINK-36153", "group": "last-30-days", "lat": -5.405118293583267, "lon": -155.268714345728, "alt_km": 325.30173879896665, "timestamp": "2025-12-18T15:47:09.961812+00:00", "meta": {"OBJECT_NAME": "STARLINK-36153", "OBJECT_ID": "2025-286K", "EPOCH": "2025-12-18T06:00:02.999808", "MEAN_MOTION": 15.83656659, "ECCENTRICITY": 6.131e-05, "INCLINATION": 53.1562, "RA_OF_ASC_NODE": 22.7135, "ARG_OF_PERICENTER": 85.6115, "MEAN_ANOMALY": 296.1172, "EPHEMERIS_TYPE": 0, "CLASSIFICATION_TYPE": "U", "NORAD_CAT_ID": 66934, "ELEMENT_SET_NO": 999, "REV_AT_EPOCH": 287, "BSTAR": -0.0069415766, "MEAN_MOTION_DOT": -0.0136549, "MEAN_MOTION_DDOT": 0}, "tle": {"line1": "1 66934U 25286K   25352.25003472 -.01365490  00000+0 -69416-2 0  9998", "line2": "2 66934  53.1562  22.7135 0000613  85.6115 296.1172 15.83656659  2877"}}, "geometry": {"type": "Point", "coordinates": [-155.268714345728, -5.405118293583267]}}, {"type": "Feature", "properties": {"norad_id": 66935, "name": "STARLINK-36127", "group": "last-30-days", "lat": -7.351807948762858, "lon": -153.79022628742982, "alt_km": 325.59816602543924, "timestamp": "2025-12-18T15:47:09.961826+00:00", "meta": {"OBJECT_NAME": "STARLINK-36127", "OBJECT_ID": "2025-286L", "EPOCH": "2025-12-18T06:00:02.999808", "MEAN_MOTION": 15.83656131, "ECCENTRICITY": 7.748e-05, "INCLINATION": 53.1562, "RA_OF_ASC_NODE": 22.7086, "ARG_OF_PERICENTER": 88.0193, "MEAN_ANOMALY": 296.1629, "EPHEMERIS_TYPE": 0, "CLASSIFICATION_TYPE": "U", "NORAD_CAT_ID": 66935, "ELEMENT_SET_NO": 999, "REV_AT_EPOCH": 287, "BSTAR": -0.0070386515, "MEAN_MOTION_DOT": -0.01382178, "MEAN_MOTION_DDOT": 0}, "tle": {"line1": "1 66935U 25286L   25352.25003472 -.01382178  00000+0 -70387-2 0  9990", "line2": "2 66935  53.1562  22.7086 0000774  88.0193 296.1629 15.83656131  2876"}}, "geometry": {"type": "Point", "coordinates": [-153.79022628742982, -7.351807948762858]}}, {"type": "Feature", "properties": {"norad_id": 66936, "name": "STARLINK-36160", "group": "last-30-days", "lat": -9.0334991623937, "lon": -152.49950974849506, "alt_km": 325.8048022804214, "timestamp": "2025-12-18T15:47:09.961836+00:00", "meta": {"OBJECT_NAME": "STARLINK-36160", "OBJECT_ID": "2025-286M", "EPOCH": "2025-12-18T06:00:02.999808", "MEAN_MOTION": 15.83662731, "ECCENTRICITY": 7.162e-05, "INCLINATION": 53.1562, "RA_OF_ASC_NODE": 22.7045, "ARG_OF_PERICENTER": 86.8974, "MEAN_ANOMALY": 299.3919, "EPHEMERIS_TYPE": 0, "CLASSIFICATION_TYPE": "U", "NORAD_CAT_ID": 66936, "ELEMENT_SET_NO": 999, "REV_AT_EPOCH": 287, "BSTAR": -0.0070460123, "MEAN_MOTION_DOT": -0.01383778, "MEAN_MOTION_DDOT": 0}, "tle": {"line1": "1 66936U 25286M   25352.25003472 -.01383778  00000+0 -70460-2 0  9990", "line2": "2 66936  53.1562  22.7045 0000716  86.8974 299.3919 15.83662731  2871"}}, "geometry": {"type": "Point", "coordinates": [-152.49950974849506, -9.0334991623937]}}]}